start=new Date('2021-10-02T00:00:00.000Z').valueOf();
sats=[{"APOAPSIS":"352.908","OBJECT_NAME":"STARLINK-2330","EPOCH":"2021-10-01T13:40:13.325088","ELEMENT_SET_NO":"999","BSTAR":"0.00004771000000","TIME_SYSTEM":"UTC","DECAY_DATE":null,"EPHEMERIS_TYPE":"0","INCLINATION":"53.0465","TLE_LINE1":"1 47874U 21021Q   21274.56959867  .00006084  00000-0  47710-4 0  9998","REF_FRAME":"TEME","MEAN_MOTION":"15.73217428","RCS_SIZE":"LARGE","NORAD_CAT_ID":"47874","GP_ID":"185961323","CLASSIFICATION_TYPE":"U","SITE":"AFETR","CENTER_NAME":"EARTH","MEAN_MOTION_DOT":"0.00006084","LAUNCH_DATE":"2021-03-14","TLE_LINE2":"2 47874  53.0465 298.5347 0004753   7.6888 352.4202 15.73217428 32653","ECCENTRICITY":"0.00047530","MEAN_ANOMALY":"352.4202","OBJECT_TYPE":"PAYLOAD","FILE":"3139397","MEAN_ELEMENT_THEORY":"SGP4","REV_AT_EPOCH":"3265","ARG_OF_PERICENTER":"7.6888","OBJECT_ID":"2021-021Q","SEMIMAJOR_AXIS":"6727.845","PERIOD":"91.532","COUNTRY_CODE":"US","MEAN_MOTION_DDOT":"0.0000000000000","PERIAPSIS":"346.513","RA_OF_ASC_NODE":"298.5347"},{"COUNTRY_CODE":"US","MEAN_MOTION_DDOT":"0.0000000000000","PERIOD":"95.592","SEMIMAJOR_AXIS":"6925.321","OBJECT_ID":"2021-021R","ARG_OF_PERICENTER":"112.5075","REV_AT_EPOCH":"3210","RA_OF_ASC_NODE":"343.2023","PERIAPSIS":"546.458","MEAN_ELEMENT_THEORY":"SGP4","FILE":"3139397","MEAN_ANOMALY":"247.6025","OBJECT_TYPE":"PAYLOAD","CLASSIFICATION_TYPE":"U","GP_ID":"185961573","NORAD_CAT_ID":"47875","RCS_SIZE":"LARGE","REF_FRAME":"TEME","MEAN_MOTION":"15.06408879","ECCENTRICITY":"0.00010510","TLE_LINE2":"2 47875  53.0547 343.2023 0001051 112.5075 247.6025 15.06408879 32102","LAUNCH_DATE":"2021-03-14","CENTER_NAME":"EARTH","MEAN_MOTION_DOT":"0.00002284","SITE":"AFETR","ELEMENT_SET_NO":"999","EPOCH":"2021-10-01T21:12:08.924832","OBJECT_NAME":"STARLINK-2331","APOAPSIS":"547.914","TLE_LINE1":"1 47875U 21021R   21274.88343663  .00002284  00000-0  17213-3 0  9997","INCLINATION":"53.0547","EPHEMERIS_TYPE":"0","DECAY_DATE":null,"TIME_SYSTEM":"UTC","BSTAR":"0.00017213000000"},{"MEAN_MOTION":"15.06406617","REF_FRAME":"TEME","CLASSIFICATION_TYPE":"U","NORAD_CAT_ID":"47876","GP_ID":"185961817","RCS_SIZE":"LARGE","LAUNCH_DATE":"2021-03-14","CENTER_NAME":"EARTH","MEAN_MOTION_DOT":"0.00000506","SITE":"AFETR","ECCENTRICITY":"0.00010910","TLE_LINE2":"2 47876  53.0576 344.1467 0001091 128.1716 231.9372 15.06406617 32026","APOAPSIS":"547.949","EPOCH":"2021-10-01T16:09:36.455040","ELEMENT_SET_NO":"999","OBJECT_NAME":"STARLINK-2332","DECAY_DATE":null,"TIME_SYSTEM":"UTC","BSTAR":"0.00005286900000","TLE_LINE1":"1 47876U 21021S   21274.67333860  .00000506  00000-0  52869-4 0  9995","INCLINATION":"53.0576","EPHEMERIS_TYPE":"0","OBJECT_ID":"2021-021S","SEMIMAJOR_AXIS":"6925.328","ARG_OF_PERICENTER":"128.1716","REV_AT_EPOCH":"3202","MEAN_MOTION_DDOT":"0.0000000000000","COUNTRY_CODE":"US","PERIOD":"95.592","PERIAPSIS":"546.438","RA_OF_ASC_NODE":"344.1467","OBJECT_TYPE":"PAYLOAD","MEAN_ANOMALY":"231.9372","MEAN_ELEMENT_THEORY":"SGP4","FILE":"3139397"},{"NORAD_CAT_ID":"47877","GP_ID":"185962571","CLASSIFICATION_TYPE":"U","RCS_SIZE":"LARGE","MEAN_MOTION":"15.06396890","REF_FRAME":"TEME","TLE_LINE2":"2 47877  53.0553 343.1837 0001034 123.0159 237.0929 15.06396890 32042","ECCENTRICITY":"0.00010340","MEAN_MOTION_DOT":"0.00000612","CENTER_NAME":"EARTH","LAUNCH_DATE":"2021-03-14","SITE":"AFETR","EPOCH":"2021-10-01T21:17:27.668256","ELEMENT_SET_NO":"999","OBJECT_NAME":"STARLINK-2333","APOAPSIS":"547.939","TLE_LINE1":"1 47877U 21021T   21274.88712579  .00000612  00000-0  59994-4 0  9991","INCLINATION":"53.0553","EPHEMERIS_TYPE":"0","TIME_SYSTEM":"UTC","DECAY_DATE":null,"BSTAR":"0.00005999400000","PERIOD":"95.592","MEAN_MOTION_DDOT":"0.0000000000000","COUNTRY_CODE":"US","ARG_OF_PERICENTER":"123.0159","SEMIMAJOR_AXIS":"6925.358","OBJECT_ID":"2021-021T","REV_AT_EPOCH":"3204","RA_OF_ASC_NODE":"343.1837","PERIAPSIS":"546.507","MEAN_ELEMENT_THEORY":"SGP4","FILE":"3139397","OBJECT_TYPE":"PAYLOAD","MEAN_ANOMALY":"237.0929"},{"REV_AT_EPOCH":"3179","SEMIMAJOR_AXIS":"6925.368","OBJECT_ID":"2021-021U","ARG_OF_PERICENTER":"97.5351","COUNTRY_CODE":"US","MEAN_MOTION_DDOT":"0.0000000000000","PERIOD":"95.593","PERIAPSIS":"546.557","RA_OF_ASC_NODE":"344.6291","MEAN_ANOMALY":"262.5749","OBJECT_TYPE":"PAYLOAD","FILE":"3139397","MEAN_ELEMENT_THEORY":"SGP4","MEAN_MOTION":"15.06393532","REF_FRAME":"TEME","RCS_SIZE":"LARGE","CLASSIFICATION_TYPE":"U","GP_ID":"185960823","NORAD_CAT_ID":"47878","SITE":"AFETR","LAUNCH_DATE":"2021-03-14","CENTER_NAME":"EARTH","MEAN_MOTION_DOT":"0.00000407","ECCENTRICITY":"0.00009770","TLE_LINE2":"2 47878  53.0578 344.6291 0000977  97.5351 262.5749 15.06393532 31798","APOAPSIS":"547.910","OBJECT_NAME":"STARLINK-2335","EPOCH":"2021-10-01T13:35:41.854560","ELEMENT_SET_NO":"999","BSTAR":"0.00004621100000","DECAY_DATE":null,"TIME_SYSTEM":"UTC","EPHEMERIS_TYPE":"0","TLE_LINE1":"1 47878U 21021U   21274.56645665  .00000407  00000-0  46211-4 0  9998","INCLINATION":"53.0578"},{"RCS_SIZE":"LARGE","NORAD_CAT_ID":"47879","GP_ID":"185961073","CLASSIFICATION_TYPE":"U","REF_FRAME":"TEME","MEAN_MOTION":"15.06408998","ECCENTRICITY":"0.00012120","TLE_LINE2":"2 47879  53.0577 359.0567 0001212 103.8843 256.2281 15.06408998 31989","SITE":"AFETR","CENTER_NAME":"EARTH","MEAN_MOTION_DOT":"0.00001474","LAUNCH_DATE":"2021-03-14","OBJECT_NAME":"STARLINK-2336","ELEMENT_SET_NO":"999","EPOCH":"2021-10-01T16:42:07.262496","APOAPSIS":"548.025","EPHEMERIS_TYPE":"0","TLE_LINE1":"1 47879U 21021V   21274.69591739  .00001474  00000-0  11778-3 0  9999","INCLINATION":"53.0577","BSTAR":"0.00011778000000","TIME_SYSTEM":"UTC","DECAY_DATE":null,"PERIOD":"95.592","COUNTRY_CODE":"US","MEAN_MOTION_DDOT":"0.0000000000000","REV_AT_EPOCH":"3198","ARG_OF_PERICENTER":"103.8843","SEMIMAJOR_AXIS":"6925.321","OBJECT_ID":"2021-021V","RA_OF_ASC_NODE":"359.0567","PERIAPSIS":"546.347","FILE":"3139397","MEAN_ELEMENT_THEORY":"SGP4","MEAN_ANOMALY":"256.2281","OBJECT_TYPE":"PAYLOAD"},{"RA_OF_ASC_NODE":"354.1485","PERIAPSIS":"546.412","MEAN_MOTION_DDOT":"0.0000000000000","COUNTRY_CODE":"US","PERIOD":"95.592","REV_AT_EPOCH":"3187","SEMIMAJOR_AXIS":"6925.362","OBJECT_ID":"2021-021W","ARG_OF_PERICENTER":"99.3530","FILE":"3139397","MEAN_ELEMENT_THEORY":"SGP4","OBJECT_TYPE":"PAYLOAD","MEAN_ANOMALY":"260.7592","ECCENTRICITY":"0.00011770","TLE_LINE2":"2 47880  53.0554 354.1485 0001177  99.3530 260.7592 15.06395500 31870","SITE":"AFETR","LAUNCH_DATE":"2021-03-14","CENTER_NAME":"EARTH","MEAN_MOTION_DOT":"0.00000651","RCS_SIZE":"LARGE","CLASSIFICATION_TYPE":"U","GP_ID":"185962318","NORAD_CAT_ID":"47880","REF_FRAME":"TEME","MEAN_MOTION":"15.06395500","EPHEMERIS_TYPE":"0","TLE_LINE1":"1 47880U 21021W   21274.67147928  .00000651  00000-0  62581-4 0  9991","INCLINATION":"53.0554","BSTAR":"0.00006258100000","DECAY_DATE":null,"TIME_SYSTEM":"UTC","OBJECT_NAME":"STARLINK-2337","ELEMENT_SET_NO":"999","EPOCH":"2021-10-01T16:06:55.809792","APOAPSIS":"548.042"},{"OBJECT_TYPE":"PAYLOAD","MEAN_ANOMALY":"304.4081","MEAN_ELEMENT_THEORY":"SGP4","FILE":"3139397","PERIAPSIS":"546.007","RA_OF_ASC_NODE":"354.2422","SEMIMAJOR_AXIS":"6925.320","OBJECT_ID":"2021-021X","ARG_OF_PERICENTER":"55.7068","REV_AT_EPOCH":"3183","MEAN_MOTION_DDOT":"0.0000000000000","COUNTRY_CODE":"US","PERIOD":"95.592","DECAY_DATE":null,"TIME_SYSTEM":"UTC","BSTAR":"0.00003070800000","TLE_LINE1":"1 47881U 21021X   21274.62820007  .00000176  00000-0  30708-4 0  9991","INCLINATION":"53.0577","EPHEMERIS_TYPE":"0","APOAPSIS":"548.363","ELEMENT_SET_NO":"999","EPOCH":"2021-10-01T15:04:36.486048","OBJECT_NAME":"STARLINK-2339","LAUNCH_DATE":"2021-03-14","MEAN_MOTION_DOT":"0.00000176","CENTER_NAME":"EARTH","SITE":"AFETR","ECCENTRICITY":"0.00017010","TLE_LINE2":"2 47881  53.0577 354.2422 0001701  55.7068 304.4081 15.06409240 31835","MEAN_MOTION":"15.06409240","REF_FRAME":"TEME","CLASSIFICATION_TYPE":"U","GP_ID":"185962071","NORAD_CAT_ID":"47881","RCS_SIZE":"LARGE"},{"CLASSIFICATION_TYPE":"U","GP_ID":"185961324","NORAD_CAT_ID":"47882","RCS_SIZE":"LARGE","MEAN_MOTION":"15.06386907","REF_FRAME":"TEME","TLE_LINE2":"2 47882  53.0559 344.1570 0001081 125.7692 234.3398 15.06386907 32185","ECCENTRICITY":"0.00010810","LAUNCH_DATE":"2021-03-14","CENTER_NAME":"EARTH","MEAN_MOTION_DOT":"-0.00005070","SITE":"AFETR","EPOCH":"2021-10-01T16:04:15.944736","ELEMENT_SET_NO":"999","OBJECT_NAME":"STARLINK-2340","APOAPSIS":"548.002","TLE_LINE1":"1 47882U 21021Y   21274.66962899 -.00005070  00000-0 -32187-3 0  9994","INCLINATION":"53.0559","EPHEMERIS_TYPE":"0","DECAY_DATE":null,"TIME_SYSTEM":"UTC","BSTAR":"-0.00032187000000","COUNTRY_CODE":"US","MEAN_MOTION_DDOT":"0.0000000000000","PERIOD":"95.593","SEMIMAJOR_AXIS":"6925.389","OBJECT_ID":"2021-021Y","ARG_OF_PERICENTER":"125.7692","REV_AT_EPOCH":"3218","RA_OF_ASC_NODE":"344.1570","PERIAPSIS":"546.505","MEAN_ELEMENT_THEORY":"SGP4","FILE":"3139397","OBJECT_TYPE":"PAYLOAD","MEAN_ANOMALY":"234.3398"},{"RA_OF_ASC_NODE":"349.5868","PERIAPSIS":"546.560","COUNTRY_CODE":"US","MEAN_MOTION_DDOT":"0.0000000000000","PERIOD":"95.593","OBJECT_ID":"2021-021Z","SEMIMAJOR_AXIS":"6925.382","ARG_OF_PERICENTER":"109.2034","REV_AT_EPOCH":"3210","MEAN_ELEMENT_THEORY":"SGP4","FILE":"3139397","MEAN_ANOMALY":"250.9063","OBJECT_TYPE":"PAYLOAD","ECCENTRICITY":"0.00009930","TLE_LINE2":"2 47883  53.0596 349.5868 0000993 109.2034 250.9063 15.06388963 32103","LAUNCH_DATE":"2021-03-14","CENTER_NAME":"EARTH","MEAN_MOTION_DOT":"0.00000549","SITE":"AFETR","CLASSIFICATION_TYPE":"U","GP_ID":"185961574","NORAD_CAT_ID":"47883","RCS_SIZE":"MEDIUM","REF_FRAME":"TEME","MEAN_MOTION":"15.06388963","TLE_LINE1":"1 47883U 21021Z   21274.57520951  .00000549  00000-0  55773-4 0  9995","INCLINATION":"53.0596","EPHEMERIS_TYPE":"0","DECAY_DATE":null,"TIME_SYSTEM":"UTC","BSTAR":"0.00005577300000","EPOCH":"2021-10-01T13:48:18.101664","ELEMENT_SET_NO":"999","OBJECT_NAME":"STARLINK-2342","APOAPSIS":"547.935"}];
